start=new Date('2022-09-22T00:00:00.000Z').valueOf();
sats=[{"OBJECT_TYPE":"PAYLOAD","RCS_SIZE":"LARGE","TIME_SYSTEM":"UTC","SITE":"AFETR","ELEMENT_SET_NO":"999","TLE_LINE2":"2 52648  53.2187 180.3937 0001430  54.1335 305.9789 15.08831782 20458","ARG_OF_PERICENTER":"54.1335","BSTAR":"-0.00001262700000","GP_ID":"213152638","OBJECT_ID":"2022-052BC","CLASSIFICATION_TYPE":"U","DECAY_DATE":null,"OBJECT_NAME":"STARLINK-3854","PERIAPSIS":"538.781","LAUNCH_DATE":"2022-05-14","PERIOD":"95.438","EPOCH":"2022-09-21T03:17:50.267904","COUNTRY_CODE":"US","INCLINATION":"53.2187","MEAN_ELEMENT_THEORY":"SGP4","SEMIMAJOR_AXIS":"6917.906","MEAN_ANOMALY":"305.9789","FILE":"3578999","MEAN_MOTION":"15.08831782","NORAD_CAT_ID":"52648","MEAN_MOTION_DOT":"-0.00000489","CENTER_NAME":"EARTH","RA_OF_ASC_NODE":"180.3937","EPHEMERIS_TYPE":"0","REF_FRAME":"TEME","MEAN_MOTION_DDOT":"0.0000000000000","TLE_LINE1":"1 52648U 22052BC  22264.13738736 -.00000489  00000-0 -12627-4 0  9995","REV_AT_EPOCH":"2045","ECCENTRICITY":"0.00014300","APOAPSIS":"540.760"},{"OBJECT_TYPE":"PAYLOAD","RCS_SIZE":"LARGE","ELEMENT_SET_NO":"999","TIME_SYSTEM":"UTC","SITE":"AFETR","TLE_LINE2":"2 52649  53.2197 180.1428 0001939  51.5994 308.5172 15.08835770 20095","BSTAR":"0.00006120800000","ARG_OF_PERICENTER":"51.5994","OBJECT_ID":"2022-052BD","GP_ID":"213194302","DECAY_DATE":null,"OBJECT_NAME":"STARLINK-3868","CLASSIFICATION_TYPE":"U","PERIAPSIS":"538.417","LAUNCH_DATE":"2022-05-14","EPOCH":"2022-09-21T04:38:41.949312","PERIOD":"95.438","INCLINATION":"53.2197","COUNTRY_CODE":"US","SEMIMAJOR_AXIS":"6917.893","MEAN_ELEMENT_THEORY":"SGP4","MEAN_ANOMALY":"308.5172","MEAN_MOTION":"15.08835770","FILE":"3579752","NORAD_CAT_ID":"52649","RA_OF_ASC_NODE":"180.1428","MEAN_MOTION_DOT":"0.00000686","CENTER_NAME":"EARTH","EPHEMERIS_TYPE":"0","REF_FRAME":"TEME","MEAN_MOTION_DDOT":"0.0000000000000","ECCENTRICITY":"0.00019390","TLE_LINE1":"1 52649U 22052BD  22264.19354108  .00000686  00000-0  61208-4 0  9995","REV_AT_EPOCH":"2009","APOAPSIS":"541.100"},{"RCS_SIZE":"LARGE","OBJECT_TYPE":"PAYLOAD","TLE_LINE2":"2 52650  53.2166 170.9930 0001938  54.4416 305.6756 15.08839592 20203","ELEMENT_SET_NO":"999","SITE":"AFETR","TIME_SYSTEM":"UTC","OBJECT_NAME":"STARLINK-3891","DECAY_DATE":null,"CLASSIFICATION_TYPE":"U","BSTAR":"-0.00007238100000","ARG_OF_PERICENTER":"54.4416","OBJECT_ID":"2022-052BE","GP_ID":"213193506","PERIAPSIS":"538.406","INCLINATION":"53.2166","COUNTRY_CODE":"US","SEMIMAJOR_AXIS":"6917.882","MEAN_ANOMALY":"305.6756","MEAN_ELEMENT_THEORY":"SGP4","LAUNCH_DATE":"2022-05-14","PERIOD":"95.438","EPOCH":"2022-09-21T00:04:28.398144","EPHEMERIS_TYPE":"0","REF_FRAME":"TEME","FILE":"3579752","NORAD_CAT_ID":"52650","MEAN_MOTION":"15.08839592","RA_OF_ASC_NODE":"170.9930","MEAN_MOTION_DOT":"-0.00001440","CENTER_NAME":"EARTH","APOAPSIS":"541.087","MEAN_MOTION_DDOT":"0.0000000000000","ECCENTRICITY":"0.00019380","REV_AT_EPOCH":"2020","TLE_LINE1":"1 52650U 22052BE  22264.00310646 -.00001440  00000-0 -72381-4 0  9991"},{"ELEMENT_SET_NO":"999","TIME_SYSTEM":"UTC","SITE":"AFETR","TLE_LINE2":"2 52656  53.2173  72.2592 0001526  62.4024 297.7123 15.08832686 20163","OBJECT_TYPE":"PAYLOAD","RCS_SIZE":"LARGE","PERIAPSIS":"538.712","OBJECT_ID":"2022-053A","GP_ID":"213193770","BSTAR":"-0.00000522320000","ARG_OF_PERICENTER":"62.4024","DECAY_DATE":null,"OBJECT_NAME":"STARLINK-4004","CLASSIFICATION_TYPE":"U","RA_OF_ASC_NODE":"72.2592","CENTER_NAME":"EARTH","MEAN_MOTION_DOT":"-0.00000371","FILE":"3579752","NORAD_CAT_ID":"52656","MEAN_MOTION":"15.08832686","REF_FRAME":"TEME","EPHEMERIS_TYPE":"0","PERIOD":"95.438","EPOCH":"2022-09-21T20:05:21.483744","LAUNCH_DATE":"2022-05-18","MEAN_ANOMALY":"297.7123","SEMIMAJOR_AXIS":"6917.903","MEAN_ELEMENT_THEORY":"SGP4","INCLINATION":"53.2173","COUNTRY_CODE":"US","ECCENTRICITY":"0.00015260","REV_AT_EPOCH":"2016","TLE_LINE1":"1 52656U 22053A   22264.83705421 -.00000371  00000-0 -52232-5 0  9994","MEAN_MOTION_DDOT":"0.0000000000000","APOAPSIS":"540.823"},{"FILE":"3579752","NORAD_CAT_ID":"52657","MEAN_MOTION":"15.08838111","RA_OF_ASC_NODE":"72.2250","CENTER_NAME":"EARTH","MEAN_MOTION_DOT":"0.00001307","EPHEMERIS_TYPE":"0","REF_FRAME":"TEME","LAUNCH_DATE":"2022-05-18","PERIOD":"95.438","EPOCH":"2022-09-21T20:15:57.655584","INCLINATION":"53.2168","COUNTRY_CODE":"US","SEMIMAJOR_AXIS":"6917.886","MEAN_ANOMALY":"310.3329","MEAN_ELEMENT_THEORY":"SGP4","MEAN_MOTION_DDOT":"0.0000000000000","ECCENTRICITY":"0.00013550","REV_AT_EPOCH":"2046","TLE_LINE1":"1 52657U 22053B   22264.84441731  .00001307  00000-0  10019-3 0  9990","APOAPSIS":"540.689","ELEMENT_SET_NO":"999","SITE":"AFETR","TIME_SYSTEM":"UTC","TLE_LINE2":"2 52657  53.2168  72.2250 0001355  49.7781 310.3329 15.08838111 20469","OBJECT_TYPE":"PAYLOAD","RCS_SIZE":"LARGE","PERIAPSIS":"538.814","BSTAR":"0.00010019000000","ARG_OF_PERICENTER":"49.7781","OBJECT_ID":"2022-053B","GP_ID":"213194081","OBJECT_NAME":"STARLINK-4084","DECAY_DATE":null,"CLASSIFICATION_TYPE":"U"},{"OBJECT_ID":"2022-053C","GP_ID":"213193921","BSTAR":"0.00014595000000","ARG_OF_PERICENTER":"47.3958","CLASSIFICATION_TYPE":"U","DECAY_DATE":null,"OBJECT_NAME":"STARLINK-4082","PERIAPSIS":"538.615","OBJECT_TYPE":"PAYLOAD","RCS_SIZE":"LARGE","ELEMENT_SET_NO":"999","TIME_SYSTEM":"UTC","SITE":"AFETR","TLE_LINE2":"2 52658  53.2165  73.1316 0001655  47.3958 312.7174 15.08835372 20250","ECCENTRICITY":"0.00016550","TLE_LINE1":"1 52658U 22053C   22264.64201338  .00002035  00000-0  14595-3 0  9998","REV_AT_EPOCH":"2025","MEAN_MOTION_DDOT":"0.0000000000000","APOAPSIS":"540.904","EPOCH":"2022-09-21T15:24:29.956032","PERIOD":"95.438","LAUNCH_DATE":"2022-05-18","SEMIMAJOR_AXIS":"6917.895","MEAN_ANOMALY":"312.7174","MEAN_ELEMENT_THEORY":"SGP4","INCLINATION":"53.2165","COUNTRY_CODE":"US","RA_OF_ASC_NODE":"73.1316","MEAN_MOTION_DOT":"0.00002035","CENTER_NAME":"EARTH","NORAD_CAT_ID":"52658","FILE":"3579752","MEAN_MOTION":"15.08835372","REF_FRAME":"TEME","EPHEMERIS_TYPE":"0"},{"EPHEMERIS_TYPE":"0","REF_FRAME":"TEME","NORAD_CAT_ID":"52659","FILE":"3579752","MEAN_MOTION":"15.08842500","RA_OF_ASC_NODE":"72.5323","CENTER_NAME":"EARTH","MEAN_MOTION_DOT":"0.00000812","INCLINATION":"53.2168","COUNTRY_CODE":"US","MEAN_ANOMALY":"308.6404","SEMIMAJOR_AXIS":"6917.873","MEAN_ELEMENT_THEORY":"SGP4","LAUNCH_DATE":"2022-05-18","EPOCH":"2022-09-21T18:36:38.849760","PERIOD":"95.437","APOAPSIS":"540.721","MEAN_MOTION_DDOT":"0.0000000000000","ECCENTRICITY":"0.00014220","TLE_LINE1":"1 52659U 22053D   22264.77544965  .00000812  00000-0  69108-4 0  9991","REV_AT_EPOCH":"2026","TLE_LINE2":"2 52659  53.2168  72.5323 0001422  51.4716 308.6404 15.08842500 20267","ELEMENT_SET_NO":"999","SITE":"AFETR","TIME_SYSTEM":"UTC","RCS_SIZE":"MEDIUM","OBJECT_TYPE":"PAYLOAD","PERIAPSIS":"538.754","OBJECT_NAME":"STARLINK-3960","DECAY_DATE":null,"CLASSIFICATION_TYPE":"U","BSTAR":"0.00006910800000","ARG_OF_PERICENTER":"51.4716","OBJECT_ID":"2022-053D","GP_ID":"213193195"},{"TIME_SYSTEM":"UTC","SITE":"AFETR","ELEMENT_SET_NO":"999","TLE_LINE2":"2 52660  53.2153  73.4610 0001410  57.9780 302.1349 15.08841585 20125","OBJECT_TYPE":"PAYLOAD","RCS_SIZE":"LARGE","PERIAPSIS":"538.765","GP_ID":"213193355","OBJECT_ID":"2022-053E","ARG_OF_PERICENTER":"57.9780","BSTAR":"0.00006206400000","CLASSIFICATION_TYPE":"U","DECAY_DATE":null,"OBJECT_NAME":"STARLINK-4081","CENTER_NAME":"EARTH","MEAN_MOTION_DOT":"0.00000700","RA_OF_ASC_NODE":"73.4610","FILE":"3579752","MEAN_MOTION":"15.08841585","NORAD_CAT_ID":"52660","REF_FRAME":"TEME","EPHEMERIS_TYPE":"0","EPOCH":"2022-09-21T13:38:29.888736","PERIOD":"95.437","LAUNCH_DATE":"2022-05-18","MEAN_ANOMALY":"302.1349","SEMIMAJOR_AXIS":"6917.876","MEAN_ELEMENT_THEORY":"SGP4","COUNTRY_CODE":"US","INCLINATION":"53.2153","REV_AT_EPOCH":"2012","TLE_LINE1":"1 52660U 22053E   22264.56840149  .00000700  00000-0  62064-4 0  9993","ECCENTRICITY":"0.00014100","MEAN_MOTION_DDOT":"0.0000000000000","APOAPSIS":"540.716"},{"INCLINATION":"53.2182","COUNTRY_CODE":"US","SEMIMAJOR_AXIS":"6917.909","MEAN_ANOMALY":"306.5888","MEAN_ELEMENT_THEORY":"SGP4","LAUNCH_DATE":"2022-05-18","EPOCH":"2022-09-21T19:54:45.561600","PERIOD":"95.438","EPHEMERIS_TYPE":"0","REF_FRAME":"TEME","FILE":"3579752","NORAD_CAT_ID":"52661","MEAN_MOTION":"15.08830780","RA_OF_ASC_NODE":"72.2909","CENTER_NAME":"EARTH","MEAN_MOTION_DOT":"-0.00000889","APOAPSIS":"540.907","MEAN_MOTION_DDOT":"0.0000000000000","ECCENTRICITY":"0.00016390","TLE_LINE1":"1 52661U 22053F   22264.82969400 -.00000889  00000-0 -37786-4 0  9998","REV_AT_EPOCH":"2009","RCS_SIZE":"LARGE","OBJECT_TYPE":"PAYLOAD","TLE_LINE2":"2 52661  53.2182  72.2909 0001639  53.5255 306.5888 15.08830780 20095","ELEMENT_SET_NO":"999","SITE":"AFETR","TIME_SYSTEM":"UTC","OBJECT_NAME":"STARLINK-4042","DECAY_DATE":null,"CLASSIFICATION_TYPE":"U","BSTAR":"-0.00003778600000","ARG_OF_PERICENTER":"53.5255","OBJECT_ID":"2022-053F","GP_ID":"213194303","PERIAPSIS":"538.640"},{"RCS_SIZE":"LARGE","OBJECT_TYPE":"PAYLOAD","TLE_LINE2":"2 52662  53.2191  72.3427 0001669  56.4548 303.6604 15.08847983 20099","TIME_SYSTEM":"UTC","SITE":"AFETR","ELEMENT_SET_NO":"999","OBJECT_NAME":"STARLINK-4044","DECAY_DATE":null,"CLASSIFICATION_TYPE":"U","GP_ID":"213193507","OBJECT_ID":"2022-053G","ARG_OF_PERICENTER":"56.4548","BSTAR":"0.00013055000000","PERIAPSIS":"538.566","MEAN_ELEMENT_THEORY":"SGP4","SEMIMAJOR_AXIS":"6917.856","MEAN_ANOMALY":"303.6604","COUNTRY_CODE":"US","INCLINATION":"53.2191","PERIOD":"95.437","EPOCH":"2022-09-21T19:44:08.579328","LAUNCH_DATE":"2022-05-18","REF_FRAME":"TEME","EPHEMERIS_TYPE":"0","CENTER_NAME":"EARTH","MEAN_MOTION_DOT":"0.00001791","RA_OF_ASC_NODE":"72.3427","NORAD_CAT_ID":"52662","FILE":"3579752","MEAN_MOTION":"15.08847983","APOAPSIS":"540.876","REV_AT_EPOCH":"2009","TLE_LINE1":"1 52662U 22053G   22264.82232152  .00001791  00000-0  13055-3 0  9999","ECCENTRICITY":"0.00016690","MEAN_MOTION_DDOT":"0.0000000000000"}];
